COMMENT,ORIGINATOR,NORAD_CAT_ID,OBJECT_NAME,OBJECT_TYPE,CLASSIFICATION_TYPE,INTLDES,EPOCH,EPOCH_MICROSECONDS,MEAN_MOTION,ECCENTRICITY,INCLINATION,RA_OF_ASC_NODE,ARG_OF_PERICENTER,MEAN_ANOMALY,EPHEMERIS_TYPE,ELEMENT_SET_NO,REV_AT_EPOCH,BSTAR,MEAN_MOTION_DOT,MEAN_MOTION_DDOT,FILE,TLE_LINE0,TLE_LINE1,TLE_LINE2,OBJECT_ID,OBJECT_NUMBER,SEMIMAJOR_AXIS,PERIOD,APOGEE,PERIGEE,DECAYED
"GENERATED VIA SPACETRACK.ORG API","18 SPCS","48884","SPACEBEE-101","PAYLOAD","U","21059F","2022-10-12 07:57:41","742432","15.1776287","0.0008711","97.57","54.5164","64.3544","295.8588","0","999","7164","0.0011202","0.00022627","0","3606148","0 SPACEBEE-101","1 48884U 21059F   22285.33173313  .00022627  00000-0  11202-2 0  9999","2 48884  97.5700  54.5164 0008711  64.3544 295.8588 15.17762870 71647","2021-059F","48884","6890.740","94.876","518.608","506.603","0"
"GENERATED VIA SPACETRACK.ORG API","18 SPCS","48884","SPACEBEE-101","PAYLOAD","U","21059F","2022-10-13 07:41:43","906848","15.17797108","0.000871","97.5697","55.5044","60.6596","299.5507","0","999","7179","0.00093385","0.0001886","0","3608444","0 SPACEBEE-101","1 48884U 21059F   22286.32064707  .00018860  00000-0  93385-3 0  9992","2 48884  97.5697  55.5044 0008710  60.6596 299.5507 15.17797108 71795","2021-059F","48884","6890.637","94.874","518.504","506.500","0"
"GENERATED VIA SPACETRACK.ORG API","18 SPCS","48884","SPACEBEE-101","PAYLOAD","U","21059F","2022-10-13 07:41:43","906848","15.17797108","0.000871","97.5697","55.5044","60.6596","299.5507","0","999","7179","0.00093385","0.0001886","0","3609209","0 SPACEBEE-101","1 48884U 21059F   22286.32064707  .00018860  00000-0  93385-3 0  9992","2 48884  97.5697  55.5044 0008710  60.6596 299.5507 15.17797108 71795","2021-059F","48884","6890.637","94.874","518.504","506.500","0"
"GENERATED VIA SPACETRACK.ORG API","18 SPCS","48884","SPACEBEE-101","PAYLOAD","U","21059F","2022-10-14 07:25:44","63328","15.17831648","0.000867","97.5701","56.4939","58.1027","302.1048","0","999","7194","0.00085858","0.00017348","0","3611991","0 SPACEBEE-101","1 48884U 21059F   22287.30953777  .00017348  00000-0  85858-3 0  9991","2 48884  97.5701  56.4939 0008670  58.1027 302.1048 15.17831648 71946","2021-059F","48884","6890.532","94.872","518.371","506.423","0"
"GENERATED VIA SPACETRACK.ORG API","18 SPCS","48884","SPACEBEE-101","PAYLOAD","U","21059F","2022-10-14 21:40:07","59936","15.17858093","0.0008684","97.5706","57.0877","56.4173","303.7888","0","999","7203","0.00097536","0.00019738","0","3613034","0 SPACEBEE-101","1 48884U 21059F   22287.90285949  .00019738  00000-0  97536-3 0  9997","2 48884  97.5706  57.0877 0008684  56.4173 303.7888 15.17858093 72030","2021-059F","48884","6890.452","94.871","518.301","506.334","0"
"GENERATED VIA SPACETRACK.ORG API","18 SPCS","48884","SPACEBEE-101","PAYLOAD","U","21059F","2022-10-15 08:44:37","686912","15.17878638","0.0008691","97.5705","57.5491","54.792","305.4126","0","999","7210","0.0010109","0.00020474","0","3614916","0 SPACEBEE-101","1 48884U 21059F   22288.36432508  .00020474  00000-0  10109-2 0  9992","2 48884  97.5705  57.5491 0008691  54.7920 305.4126 15.17878638 72104","2021-059F","48884","6890.390","94.869","518.244","506.267","0"
"GENERATED VIA SPACETRACK.ORG API","18 SPCS","48884","SPACEBEE-101","PAYLOAD","U","21059F","2022-10-15 19:49:07","875840","15.17893195","0.0008679","97.5704","58.0104","53.4029","306.8002","0","999","7217","0.00084314","0.00017064","0","3615679","0 SPACEBEE-101","1 48884U 21059F   22288.82578560  .00017064  00000-0  84314-3 0  9993","2 48884  97.5704  58.0104 0008679  53.4029 306.8002 15.17893195 72172","2021-059F","48884","6890.346","94.868","518.191","506.231","0"
"GENERATED VIA SPACETRACK.ORG API","18 SPCS","48884","SPACEBEE-101","PAYLOAD","U","21059F","2022-10-16 06:53:37","650912","15.17908573","0.0008659","97.5703","58.4717","51.9246","308.2767","0","999","7224","0.00078327","0.00015852","0","3616598","0 SPACEBEE-101","1 48884U 21059F   22289.28724133  .00015852  00000-0  78327-3 0  9993","2 48884  97.5703  58.4717 0008659  51.9246 308.2767 15.17908573 72246","2021-059F","48884","6890.299","94.867","518.131","506.198","0"
"GENERATED VIA SPACETRACK.ORG API","18 SPCS","48884","SPACEBEE-101","PAYLOAD","U","21059F","2022-10-16 06:53:37","650912","15.17908573","0.0008659","97.5703","58.4717","51.9246","308.2767","0","999","7224","0.00078327","0.00015852","0","3617121","0 SPACEBEE-101","1 48884U 21059F   22289.28724133  .00015852  00000-0  78327-3 0  9993","2 48884  97.5703  58.4717 0008659  51.9246 308.2767 15.17908573 72246","2021-059F","48884","6890.299","94.867","518.131","506.198","0"
"GENERATED VIA SPACETRACK.ORG API","18 SPCS","48884","SPACEBEE-101","PAYLOAD","U","21059F","2022-10-16 14:48:15","848640","15.17917075","0.0008628","97.5702","58.8013","50.8298","309.3701","0","999","7229","0.00071643","0.00014494","0","3617955","0 SPACEBEE-101","1 48884U 21059F   22289.61685010  .00014494  00000-0  71643-3 0  9995","2 48884  97.5702  58.8013 0008628  50.8298 309.3701 15.17917075 72291","2021-059F","48884","6890.274","94.867","518.084","506.194","0"
"GENERATED VIA SPACETRACK.ORG API","18 SPCS","48884","SPACEBEE-101","PAYLOAD","U","21059F","2022-10-17 08:12:27","72864","15.17941568","0.0008553","97.5698","59.5264","48.2276","311.9687","0","999","7240","0.00070021","0.00014173","0","3618878","0 SPACEBEE-101","1 48884U 21059F   22290.34198001  .00014173  00000-0  70021-3 0  9999","2 48884  97.5698  59.5264 0008553  48.2276 311.9687 15.17941568 72404","2021-059F","48884","6890.200","94.865","517.958","506.171","0"
"GENERATED VIA SPACETRACK.ORG API","18 SPCS","48884","SPACEBEE-101","PAYLOAD","U","21059F","2022-10-17 08:12:27","72864","15.17941568","0.0008553","97.5698","59.5264","48.2276","311.9687","0","999","7240","0.00070021","0.00014173","0","3619530","0 SPACEBEE-101","1 48884U 21059F   22290.34198001  .00014173  00000-0  70021-3 0  9999","2 48884  97.5698  59.5264 0008553  48.2276 311.9687 15.17941568 72404","2021-059F","48884","6890.200","94.865","517.958","506.171","0"
"GENERATED VIA SPACETRACK.ORG API","18 SPCS","48884","SPACEBEE-101","PAYLOAD","U","21059F","2022-10-17 14:32:09","129408","15.17948284","0.0008547","97.5697","59.7901","47.4084","312.7869","0","999","7244","0.00065962","0.00013349","0","3620294","0 SPACEBEE-101","1 48884U 21059F   22290.60566122  .00013349  00000-0  65962-3 0  9993","2 48884  97.5697  59.7901 0008547  47.4084 312.7869 15.17948284 72441","2021-059F","48884","6890.179","94.865","517.933","506.155","0"
"GENERATED VIA SPACETRACK.ORG API","18 SPCS","48884","SPACEBEE-101","PAYLOAD","U","21059F","2022-10-18 07:56:19","220928","15.17968053","0.000848","97.5696","60.5152","44.7603","315.4313","0","999","7255","0.00059416","0.00012022","0","3621474","0 SPACEBEE-101","1 48884U 21059F   22291.33077802  .00012022  00000-0  59416-3 0  9990","2 48884  97.5696  60.5152 0008480  44.7603 315.4313 15.17968053 72553","2021-059F","48884","6890.119","94.864","517.827","506.142","0"
"GENERATED VIA SPACETRACK.ORG API","18 SPCS","48884","SPACEBEE-101","PAYLOAD","U","21059F","2022-10-18 14:16:00","893856","15.1797555","0.0008493","97.5695","60.7788","43.1034","317.0863","0","999","7259","0.00064388","0.00013038","0","3621577","0 SPACEBEE-101","1 48884U 21059F   22291.59445479  .00013038  00000-0  64388-3 0  9999","2 48884  97.5695  60.7788 0008493  43.1034 317.0863 15.17975550 72596","2021-059F","48884","6890.097","94.863","517.814","506.110","0"
"GENERATED VIA SPACETRACK.ORG API","18 SPCS","48884","SPACEBEE-101","PAYLOAD","U","21059F","2022-10-18 14:16:00","893856","15.1797555","0.0008493","97.5695","60.7788","43.1034","317.0863","0","999","7259","0.00064388","0.00013038","0","3621750","0 SPACEBEE-101","1 48884U 21059F   22291.59445479  .00013038  00000-0  64388-3 0  9999","2 48884  97.5695  60.7788 0008493  43.1034 317.0863 15.17975550 72596","2021-059F","48884","6890.097","94.863","517.814","506.110","0"
"GENERATED VIA SPACETRACK.ORG API","18 SPCS","48884","SPACEBEE-101","PAYLOAD","U","21059F","2022-10-19 07:40:09","955488","15.17994457","0.0008422","97.5696","61.5039","41.221","318.9658","0","999","7270","0.00064042","0.00012975","0","3623062","0 SPACEBEE-101","1 48884U 21059F   22292.31955967  .00012975  00000-0  64042-3 0  9994","2 48884  97.5696  61.5039 0008422  41.2210 318.9658 15.17994457 72704","2021-059F","48884","6890.040","94.862","517.707","506.102","0"
"GENERATED VIA SPACETRACK.ORG API","18 SPCS","48884","SPACEBEE-101","PAYLOAD","U","21059F","2022-10-19 21:54:27","708480","15.18008988","0.0008387","97.5696","62.0971","39.4216","320.7626","0","999","7279","0.0006135","0.0001243","0","3623738","0 SPACEBEE-101","1 48884U 21059F   22292.91282070  .00012430  00000-0  61350-3 0  9993","2 48884  97.5696  62.0971 0008387  39.4216 320.7626 15.18008988 72791","2021-059F","48884","6889.996","94.861","517.639","506.082","0"
"GENERATED VIA SPACETRACK.ORG API","18 SPCS","48884","SPACEBEE-101","PAYLOAD","U","21059F","2022-10-20 04:14:08","772288","15.18014711","0.0008365","97.57","62.3612","38.5922","321.5908","0","999","7283","0.00057748","0.00011697","0","3624083","0 SPACEBEE-101","1 48884U 21059F   22293.17649042  .00011697  00000-0  57748-3 0  9998","2 48884  97.5700  62.3612 0008365  38.5922 321.5908 15.18014711 72830","2021-059F","48884","6889.978","94.861","517.607","506.080","0"
"GENERATED VIA SPACETRACK.ORG API","18 SPCS","48884","SPACEBEE-101","PAYLOAD","U","21059F","2022-10-20 07:23:59","274816","15.18017994","0.0008367","97.57","62.493","38.3243","321.8584","0","999","7285","0.00056825","0.0001151","0","3625892","0 SPACEBEE-101","1 48884U 21059F   22293.30832494  .00011510  00000-0  56825-3 0  9997","2 48884  97.5700  62.4930 0008367  38.3243 321.8584 15.18017994 72851","2021-059F","48884","6889.968","94.861","517.598","506.069","0"
